ONEWEB-0228             
1 48780U 21045P   24222.86849831 -.00000307  00000+0 -84945-3 0  9992
2 48780  87.9030  33.7603 0001610  88.6213 271.5102 13.15548216155403
